PHASE 3B (AO-10)        
1 14129U 83058B   21021.82556569  .00000147  00000-0  00000-0 0  9995
2 14129  25.7887 179.0897 6065622 303.3308  12.4702  2.05866858254908
UOSAT 2 (UO-11)         
1 14781U 84021B   21025.51334965  .00000130  00000-0  22015-4 0  9990
2 14781  97.5900  32.4197 0008276 181.4383 178.6809 14.83240403964748
LUSAT (LO-19)           
1 20442U 90005G   21025.48684735  .00000003  00000-0  17793-4 0  9995
2 20442  98.7227 339.8049 0011017 217.6495 142.3919 14.32974413620352
EYESAT A (AO-27)        
1 22825U 93061C   21025.51158372  .00000006  00000-0  20142-4 0  9999
2 22825  98.9241  39.5636 0009481  91.0167 269.2101 14.30104372425559
ITAMSAT (IO-26)         
1 22826U 93061D   21025.51575966  .00000003  00000-0  18872-4 0  9996
2 22826  98.9182  39.4907 0009984  79.9455 280.2853 14.30441936425790
RADIO ROSTO (RS-15)     
1 23439U 94085A   21025.64587089 -.00000037  00000-0  15882-3 0  9992
2 23439  64.8162 246.9237 0156437   0.9258 359.1929 11.27570206 74238
JAS-2 (FO-29)           
1 24278U 96046B   21025.51690698 -.00000042  00000-0 -78471-5 0  9992
2 24278  98.5837 112.3441 0350741 159.7618 201.7831 13.53102197206910
TECHSAT 1B (GO-32)      
1 25397U 98043D   21025.59907414 -.00000022  00000-0  99732-5 0  9999
2 25397  98.7554 331.6722 0002141 114.6179 245.5223 14.23699904171163
ISS (ZARYA)             
1 25544U 98067A   21025.56310185  .00001207  00000-0  30169-4 0  9992
2 25544  51.6460 328.1531 0002205 289.6828  47.8635 15.48886072266487
PCSAT (NO-44)           
1 26931U 01043C   21025.41963650 -.00000014  00000-0  26325-4 0  9991
2 26931  67.0517 289.5750 0007405 271.2470  88.7783 14.30603825  8780
SAUDISAT 1C (SO-50)     
1 27607U 02058C   21025.44860872  .00000014  00000-0  22382-4 0  9992
2 27607  64.5556  55.6228 0029397  84.2413 276.2040 14.75705140973458
CUTE-1 (CO-55)          
1 27844U 03031E   21025.52827257  .00000078  00000-0  54880-4 0  9994
2 27844  98.6817  35.8981 0010695 129.1351 231.0779 14.22284142911665
CUBESAT XI-IV (CO-57)   
1 27848U 03031J   21025.47910506  .00000046  00000-0  40829-4 0  9995
2 27848  98.6878  36.4179 0010422 141.1400 219.0528 14.21864502911491
MOZHAYETS 4 (RS-22)     
1 27939U 03042A   21025.55275606  .00000120  00000-0  30090-4 0  9994
2 27939  98.1169 163.8490 0013069  18.0744 342.0921 14.66936399926576
CUBESAT XI-V            
1 28895U 05043F   21025.63844821  .00000157  00000-0  38979-4 0  9993
2 28895  98.0364 162.1949 0015591 302.4817  57.4878 14.63857203813114
CUTE-1.7+APD II (CO-65) 
1 32785U 08021C   21025.49959154  .00000300  00000-0  37759-4 0  9990
2 32785  97.5955  10.0334 0014342 114.3322 245.9395 14.88617463690907
DELFI-C3 (DO-64)        
1 32789U 08021G   21025.55377916  .00001670  00000-0  11110-3 0  9994
2 32789  97.3940  66.3421 0010329 273.7740  86.2308 15.08423671695284
SEEDS II (CO-66)        
1 32791U 08021J   21025.51584113  .00000572  00000-0  62702-4 0  9996
2 32791  97.5582  16.0840 0014742  83.2676 277.0220 14.91255782691559
YUBILEINY (RS-30)       
1 32953U 08025A   21025.61154741  .00000028  00000-0  12906-3 0  9997
2 32953  82.5053 139.7744 0018488 288.4296  71.4769 12.43099523575234
KKS-1 (KISEKI)          
1 33499U 09002H   21025.60008753  .00000141  00000-0  28637-4 0  9994
2 33499  98.2887 252.2028 0009975 131.5235 228.6831 14.75610221645344
SWISSCUBE               
1 35932U 09051B   21025.53319599  .00000147  00000-0  44060-4 0  9991
2 35932  98.6068 220.9882 0007914 159.0041 201.1482 14.56480042602159
BEESAT-1                
1 35933U 09051C   21025.50479634  .00000125  00000-0  39210-4 0  9993
2 35933  98.6046 222.8136 0005881 168.9661 191.1666 14.56544927602220
ITUPSAT1                
1 35935U 09051E   21025.49283667  .00000110  00000-0  36282-4 0  9992
2 35935  98.6151 222.9665 0008196 172.2743 187.8582 14.55682834601977
XIWANG-1 (HOPE-1)       
1 36122U 09072B   21025.48985871 -.00000033  00000-0  24331-4 0  9996
2 36122 100.1151  12.1841 0008149  72.6895 287.5110 13.16358649534081
JUGNU                   
1 37839U 11058B   21025.27793905  .00000309  00000-0  22820-4 0  9997
2 37839  19.9630  17.5125 0018709 314.3166  73.4010 14.12701329480197
SRMSAT                  
1 37841U 11058D   21025.55666792  .00000282  00000-0  95787-5 0  9997
2 37841  19.9727  84.7407 0011853 162.9574 345.7448 14.10683529479523
M-CUBED & EXP-1 PRIME   
1 37855U 11061F   21025.51664342  .00002118  00000-0  10956-3 0  9994
2 37855 101.7259 234.7905 0168482 135.6493 225.8359 15.07124545504642
STRAND-1                
1 39090U 13009E   21025.55391995  .00000066  00000-0  37980-4 0  9993
2 39090  98.4365 231.0244 0008937 351.0889   9.0136 14.35165527414541
SOMP                    
1 39134U 13015E   21025.42421739  .00001620  00000-0  79693-4 0  9999
2 39134  64.8624 277.3591 0011582 219.0321 140.9973 15.21909190429444
BEESAT-3                
1 39135U 13015F   21025.19415284  .00000956  00000-0  55163-4 0  9999
2 39135  64.8675 304.9918 0016008 206.2950 153.7366 15.18852901428883
BEESAT-2                
1 39136U 13015G   21025.52813530  .00001694  00000-0  91329-4 0  9997
2 39136  64.8744 309.7241 0028792 262.6723  97.1131 15.18236264428812
ZACUBE-1 (TSHEPISOSAT)  
1 39417U 13066B   21025.53082916  .00000331  00000-0  47776-4 0  9996
2 39417  97.5802  17.3771 0057198 269.7988  89.6671 14.81415447387916
GOMX-1                  
1 39430U 13066Q   21025.45922741  .00000120  00000-0  30869-4 0  9992
2 39430  97.8089 316.7832 0149945 204.8581 154.5335 14.59524679382182
CUBEBUG-2 (LO-74)       
1 39440U 13066AA  21025.56579054  .00000411  00000-0  63819-4 0  9994
2 39440  97.6580   2.1237 0079509 340.2252  19.5881 14.76148342385345
FUNCUBE-1 (AO-73)       
1 39444U 13066AE  21025.53388741  .00000401  00000-0  55338-4 0  9992
2 39444  97.5722  19.7092 0056288 260.6561  98.8286 14.82300818386262
UWE-3                   
1 39446U 13066AG  21025.51249022  .00000302  00000-0  46630-4 0  9995
2 39446  97.6207   9.1402 0068610 306.2441  53.2443 14.78683163385381
SPROUT                  
1 39770U 14029E   21025.54062850  .00000732  00000-0  85539-4 0  9998
2 39770  97.9052 137.0829 0008172 323.5650  36.5016 14.88140635362082
UNISAT-6                
1 40012U 14033C   21025.49569147  .00000208  00000-0  38001-4 0  9999
2 40012  97.6866 235.3175 0058296   4.0173 356.1493 14.74231134355130
DUCHIFAT-1              
1 40021U 14033M   21025.34590320  .00000420  00000-0  48144-4 0  9995
2 40021  97.9610 324.1510 0011401 277.8684  82.1239 14.91155487358956
QB50P1                  
1 40025U 14033R   21025.52047134  .00000315  00000-0  39206-4 0  9991
2 40025  97.9268 315.9103 0011094 291.8951  68.1086 14.89312496358143
NUDT-PHONESAT           
1 40900U 15049B   21025.49942600  .00002885  00000-0  11713-3 0  9995
2 40900  97.4262  40.6178 0010567 285.3868 228.1951 15.25360177297025
ZDPS 2A                 
1 40901U 15049C   21025.53734296  .00001652  00000-0  82204-4 0  9996
2 40901  97.4635  34.3972 0012213 326.7269 150.3360 15.18961569296277
ZDPS 2B                 
1 40902U 15049D   21025.51998149  .00001639  00000-0  81547-4 0  9998
2 40902  97.4651  31.6654 0012203 323.7200 157.8520 15.18977285296243
XW-2A                   
1 40903U 15049E   21025.54102830  .00002391  00000-0  53769-4 0  9997
2 40903  97.2590  80.3867 0013147 167.8399 302.1649 15.44262072300732
KAITUO 1A               
1 40904U 15049F   21025.52792294  .00000760  00000-0  43008-4 0  9998
2 40904  97.4835  29.3058 0013918 340.1114 133.3158 15.15976304295885
2015-049G               
1 40905U 15049G   21025.51909855  .00000719  00000-0  42194-4 0  9990
2 40905  97.4948  26.4150 0014779 338.1044 138.5572 15.14803741295696
XW-2C                   
1 40906U 15049H   21025.52429115  .00000936  00000-0  51492-4 0  9990
2 40906  97.4831  29.7185 0013773 329.5443 154.2048 15.16444469295909
XW-2D                   
1 40907U 15049J   21025.54555054  .00000997  00000-0  54211-4 0  9994
2 40907  97.4821  29.4908 0013102 326.6895 149.1319 15.16725322295931
LILACSAT-2              
1 40908U 15049K   21025.50401105  .00000254  00000-0  17472-4 0  9992
2 40908  97.5000  27.4974 0015166 339.8319 174.3084 15.14261585295597
XW-2F                   
1 40910U 15049M   21025.41610765  .00001398  00000-0  70916-4 0  9991
2 40910  97.4721  32.2576 0013127 313.2207 152.7849 15.18545022296010
XW-2B                   
1 40911U 15049N   21025.48130654  .00001077  00000-0  58425-4 0  9998
2 40911  97.4830  30.1227 0012827 327.4198 184.4514 15.16646724295811
KAITUO 1B               
1 40912U 15049P   21025.52570419  .00001513  00000-0  71221-4 0  9995
2 40912  97.4475  36.6878 0012914 284.4504 227.7612 15.21017907296463
TIANWANG 1C (TW-1C)     
1 40926U 15051B   21025.43914513  .00176595  13362-4  56235-3 0  9999
2 40926  97.0502  86.7456 0001599 283.2617 204.8290 15.91150417301930
TIANWANG 1A (TW-1A)     
1 40928U 15051D   21025.54223088  .00003702  00000-0  81971-4 0  9999
2 40928  97.0921  53.9186 0011870  95.8642  32.1415 15.44335132299621
LAPAN-A2                
1 40931U 15052B   21025.08775407  .00000690  00000-0  69845-5 0  9990
2 40931   5.9968 194.8523 0012462 173.6811 186.3523 14.76659863288078
E-ST@R-II               
1 41459U 16025D   21025.59465478  .00002763  00000-0  13915-3 0  9995
2 41459  98.1219 153.5586 0162650 183.4412 176.5685 15.07321359260890
AAUSAT 4                
1 41460U 16025E   21025.30211502  .00005007  00000-0  23924-3 0  9998
2 41460  98.1179 156.4446 0150248 170.5698 189.8519 15.10050395261108
NUSAT-1 (FRESCO)        
1 41557U 16033B   21025.55096199  .00001557  00000-0  58212-4 0  9999
2 41557  97.3966 120.3689 0013799  28.6047  96.3972 15.28800226259690
BEESAT-4                
1 41619U 16040W   21025.43348756  .00001934  00000-0  80599-4 0  9994
2 41619  97.2912  85.4329 0012416 113.9438 246.3102 15.24827900243215
